start=new Date('2021-09-18T00:00:00.000Z').valueOf();
sats=[{"LAUNCH_DATE":"2020-02-17","OBJECT_ID":"2020-012BM","FILE":"3118116","BSTAR":"0.00009604800000","MEAN_MOTION_DOT":"0.00001149","INCLINATION":"53.0545","PERIOD":"95.592","RCS_SIZE":"LARGE","APOAPSIS":"548.809","TLE_LINE1":"1 45237U 20012BM  21260.85522873  .00001149  00000-0  96048-4 0  9993","OBJECT_TYPE":"PAYLOAD","DECAY_DATE":null,"NORAD_CAT_ID":"45237","COUNTRY_CODE":"US","MEAN_MOTION":"15.06395259","CLASSIFICATION_TYPE":"U","GP_ID":"184910658","CENTER_NAME":"EARTH","SITE":"AFETR","TLE_LINE2":"2 45237  53.0545 141.1961 0002283  71.2941 288.8295 15.06395259 89146","REF_FRAME":"TEME","RA_OF_ASC_NODE":"141.1961","TIME_SYSTEM":"UTC","OBJECT_NAME":"STARLINK-1270","EPOCH":"2021-09-17T20:31:31.762272","ARG_OF_PERICENTER":"71.2941","SEMIMAJOR_AXIS":"6925.363","MEAN_MOTION_DDOT":"0.0000000000000","EPHEMERIS_TYPE":"0","ECCENTRICITY":"0.00022830","MEAN_ANOMALY":"288.8295","ELEMENT_SET_NO":"999","MEAN_ELEMENT_THEORY":"SGP4","PERIAPSIS":"545.647","REV_AT_EPOCH":"8914"},{"TLE_LINE2":"2 45360  53.0539 271.6720 0000892  90.2949 269.8142 15.06387141 83865","REF_FRAME":"TEME","SITE":"AFETR","GP_ID":"184910420","CENTER_NAME":"EARTH","ARG_OF_PERICENTER":"90.2949","OBJECT_NAME":"STARLINK-1279","EPOCH":"2021-09-17T17:56:17.446560","RA_OF_ASC_NODE":"271.6720","TIME_SYSTEM":"UTC","MEAN_MOTION_DDOT":"0.0000000000000","EPHEMERIS_TYPE":"0","SEMIMAJOR_AXIS":"6925.388","REV_AT_EPOCH":"8386","MEAN_ELEMENT_THEORY":"SGP4","PERIAPSIS":"546.635","ELEMENT_SET_NO":"999","ECCENTRICITY":"0.00008920","MEAN_ANOMALY":"269.8142","MEAN_MOTION_DOT":"0.00000610","FILE":"3118116","OBJECT_ID":"2020-019A","BSTAR":"0.00005981800000","LAUNCH_DATE":"2020-03-18","APOAPSIS":"547.871","RCS_SIZE":"LARGE","PERIOD":"95.593","INCLINATION":"53.0539","DECAY_DATE":null,"NORAD_CAT_ID":"45360","TLE_LINE1":"1 45360U 20019A   21260.74742415  .00000610  00000-0  59818-4 0  9997","OBJECT_TYPE":"PAYLOAD","CLASSIFICATION_TYPE":"U","MEAN_MOTION":"15.06387141","COUNTRY_CODE":"US"},{"MEAN_MOTION_DOT":"0.00000774","OBJECT_ID":"2020-019B","FILE":"3118116","BSTAR":"0.00007086000000","LAUNCH_DATE":"2020-03-18","APOAPSIS":"547.864","RCS_SIZE":"LARGE","PERIOD":"95.592","INCLINATION":"53.0541","DECAY_DATE":null,"NORAD_CAT_ID":"45361","TLE_LINE1":"1 45361U 20019B   21260.47004513  .00000774  00000-0  70860-4 0  9999","OBJECT_TYPE":"PAYLOAD","CLASSIFICATION_TYPE":"U","MEAN_MOTION":"15.06398518","COUNTRY_CODE":"US","TLE_LINE2":"2 45361  53.0541 282.9181 0000933  95.5026 264.6069 15.06398518 83697","REF_FRAME":"TEME","SITE":"AFETR","GP_ID":"184910672","CENTER_NAME":"EARTH","ARG_OF_PERICENTER":"95.5026","OBJECT_NAME":"STARLINK-1301","EPOCH":"2021-09-17T11:16:51.899232","RA_OF_ASC_NODE":"282.9181","TIME_SYSTEM":"UTC","MEAN_MOTION_DDOT":"0.0000000000000","EPHEMERIS_TYPE":"0","SEMIMAJOR_AXIS":"6925.353","REV_AT_EPOCH":"8369","MEAN_ELEMENT_THEORY":"SGP4","PERIAPSIS":"546.572","ELEMENT_SET_NO":"999","MEAN_ANOMALY":"264.6069","ECCENTRICITY":"0.00009330"},{"ARG_OF_PERICENTER":"102.5406","TIME_SYSTEM":"UTC","RA_OF_ASC_NODE":"301.2234","EPOCH":"2021-09-17T20:20:55.758912","OBJECT_NAME":"STARLINK-1306","SITE":"AFETR","REF_FRAME":"TEME","TLE_LINE2":"2 45362  53.0542 301.2234 0000813 102.5406 257.5674 15.06388951 83469","CENTER_NAME":"EARTH","GP_ID":"184910923","PERIAPSIS":"546.684","MEAN_ELEMENT_THEORY":"SGP4","REV_AT_EPOCH":"8346","ECCENTRICITY":"0.00008130","MEAN_ANOMALY":"257.5674","ELEMENT_SET_NO":"999","MEAN_MOTION_DDOT":"0.0000000000000","EPHEMERIS_TYPE":"0","SEMIMAJOR_AXIS":"6925.382","APOAPSIS":"547.810","INCLINATION":"53.0542","PERIOD":"95.593","RCS_SIZE":"LARGE","MEAN_MOTION_DOT":"0.00000796","LAUNCH_DATE":"2020-03-18","BSTAR":"0.00007235000000","FILE":"3118116","OBJECT_ID":"2020-019C","MEAN_MOTION":"15.06388951","CLASSIFICATION_TYPE":"U","COUNTRY_CODE":"US","OBJECT_TYPE":"PAYLOAD","TLE_LINE1":"1 45362U 20019C   21260.84786758  .00000796  00000-0  72350-4 0  9999","NORAD_CAT_ID":"45362","DECAY_DATE":null},{"MEAN_MOTION":"15.06378036","CLASSIFICATION_TYPE":"U","COUNTRY_CODE":"US","OBJECT_TYPE":"PAYLOAD","TLE_LINE1":"1 45364U 20019E   21260.74373867  .00002057  00000-0  15702-3 0  9992","NORAD_CAT_ID":"45364","DECAY_DATE":null,"APOAPSIS":"547.982","INCLINATION":"53.0540","PERIOD":"95.594","RCS_SIZE":"LARGE","MEAN_MOTION_DOT":"0.00002057","LAUNCH_DATE":"2020-03-18","FILE":"3118116","OBJECT_ID":"2020-019E","BSTAR":"0.00015702000000","PERIAPSIS":"546.580","MEAN_ELEMENT_THEORY":"SGP4","REV_AT_EPOCH":"8386","MEAN_ANOMALY":"269.1817","ECCENTRICITY":"0.00010120","ELEMENT_SET_NO":"999","EPHEMERIS_TYPE":"0","MEAN_MOTION_DDOT":"0.0000000000000","SEMIMAJOR_AXIS":"6925.416","ARG_OF_PERICENTER":"90.9288","RA_OF_ASC_NODE":"271.6923","TIME_SYSTEM":"UTC","EPOCH":"2021-09-17T17:50:59.021088","OBJECT_NAME":"STARLINK-1313","SITE":"AFETR","REF_FRAME":"TEME","TLE_LINE2":"2 45364  53.0540 271.6923 0001012  90.9288 269.1817 15.06378036 83869","CENTER_NAME":"EARTH","GP_ID":"184909671"},{"MEAN_ANOMALY":"271.1155","ECCENTRICITY":"0.00008430","ELEMENT_SET_NO":"999","MEAN_ELEMENT_THEORY":"SGP4","PERIAPSIS":"549.150","REV_AT_EPOCH":"8364","SEMIMAJOR_AXIS":"6927.869","EPHEMERIS_TYPE":"0","MEAN_MOTION_DDOT":"0.0000000000000","RA_OF_ASC_NODE":"283.4984","TIME_SYSTEM":"UTC","OBJECT_NAME":"STARLINK-1317","EPOCH":"2021-09-17T08:08:20.066496","ARG_OF_PERICENTER":"88.9930","GP_ID":"184885658","CENTER_NAME":"EARTH","SITE":"AFETR","TLE_LINE2":"2 45365  53.0015 283.4984 0000843  88.9930 271.1155 15.05577897 83646","REF_FRAME":"TEME","COUNTRY_CODE":"US","MEAN_MOTION":"15.05577897","CLASSIFICATION_TYPE":"U","TLE_LINE1":"1 45365U 20019F   21260.33912114  .00000538  00000-0  56074-4 0  9992","OBJECT_TYPE":"PAYLOAD","DECAY_DATE":null,"NORAD_CAT_ID":"45365","INCLINATION":"53.0015","PERIOD":"95.644","RCS_SIZE":"LARGE","APOAPSIS":"550.318","LAUNCH_DATE":"2020-03-18","FILE":"3117861","BSTAR":"0.00005607400000","OBJECT_ID":"2020-019F","MEAN_MOTION_DOT":"0.00000538"},{"ARG_OF_PERICENTER":"104.8881","RA_OF_ASC_NODE":"301.2860","TIME_SYSTEM":"UTC","OBJECT_NAME":"STARLINK-1262","EPOCH":"2021-09-17T19:59:39.825312","SITE":"AFETR","TLE_LINE2":"2 45366  53.0539 301.2860 0000703 104.8881 255.2186 15.06404825 83477","REF_FRAME":"TEME","GP_ID":"184911172","CENTER_NAME":"EARTH","MEAN_ELEMENT_THEORY":"SGP4","PERIAPSIS":"546.712","REV_AT_EPOCH":"8347","ECCENTRICITY":"0.00007030","MEAN_ANOMALY":"255.2186","ELEMENT_SET_NO":"999","EPHEMERIS_TYPE":"0","MEAN_MOTION_DDOT":"0.0000000000000","SEMIMAJOR_AXIS":"6925.334","APOAPSIS":"547.686","INCLINATION":"53.0539","PERIOD":"95.592","RCS_SIZE":"LARGE","MEAN_MOTION_DOT":"0.00000744","LAUNCH_DATE":"2020-03-18","OBJECT_ID":"2020-019G","FILE":"3118116","BSTAR":"0.00006878000000","MEAN_MOTION":"15.06404825","CLASSIFICATION_TYPE":"U","COUNTRY_CODE":"US","TLE_LINE1":"1 45366U 20019G   21260.83309983  .00000744  00000-0  68780-4 0  9998","OBJECT_TYPE":"PAYLOAD","DECAY_DATE":null,"NORAD_CAT_ID":"45366"},{"COUNTRY_CODE":"US","CLASSIFICATION_TYPE":"U","MEAN_MOTION":"15.06388938","NORAD_CAT_ID":"45367","DECAY_DATE":null,"OBJECT_TYPE":"PAYLOAD","TLE_LINE1":"1 45367U 20019H   21260.85523786  .00000756  00000-0  69661-4 0  9992","PERIOD":"95.593","RCS_SIZE":"LARGE","INCLINATION":"53.0548","APOAPSIS":"547.701","FILE":"3118116","BSTAR":"0.00006966100000","OBJECT_ID":"2020-019H","LAUNCH_DATE":"2020-03-18","MEAN_MOTION_DOT":"0.00000756","ELEMENT_SET_NO":"999","ECCENTRICITY":"0.00006550","MEAN_ANOMALY":"268.7454","REV_AT_EPOCH":"8347","PERIAPSIS":"546.794","MEAN_ELEMENT_THEORY":"SGP4","SEMIMAJOR_AXIS":"6925.382","MEAN_MOTION_DDOT":"0.0000000000000","EPHEMERIS_TYPE":"0","EPOCH":"2021-09-17T20:31:32.551104","OBJECT_NAME":"STARLINK-1273","RA_OF_ASC_NODE":"301.1964","TIME_SYSTEM":"UTC","ARG_OF_PERICENTER":"91.3610","CENTER_NAME":"EARTH","GP_ID":"184911423","REF_FRAME":"TEME","TLE_LINE2":"2 45367  53.0548 301.1964 0000655  91.3610 268.7454 15.06388938 83471","SITE":"AFETR"},{"MEAN_MOTION_DOT":"-0.00001003","OBJECT_ID":"2020-019J","FILE":"3118116","BSTAR":"-0.00004848800000","LAUNCH_DATE":"2020-03-18","APOAPSIS":"547.774","RCS_SIZE":"LARGE","PERIOD":"95.593","INCLINATION":"53.0541","DECAY_DATE":null,"NORAD_CAT_ID":"45368","TLE_LINE1":"1 45368U 20019J   21260.82574875 -.00001003  00000-0 -48488-4 0  9997","OBJECT_TYPE":"PAYLOAD","CLASSIFICATION_TYPE":"U","MEAN_MOTION":"15.06387847","COUNTRY_CODE":"US","TLE_LINE2":"2 45368  53.0541 301.3289 0000755  94.8144 265.2932 15.06387847 83479","REF_FRAME":"TEME","SITE":"AFETR","GP_ID":"184910171","CENTER_NAME":"EARTH","ARG_OF_PERICENTER":"94.8144","OBJECT_NAME":"STARLINK-1276","EPOCH":"2021-09-17T19:49:04.692000","RA_OF_ASC_NODE":"301.3289","TIME_SYSTEM":"UTC","MEAN_MOTION_DDOT":"0.0000000000000","EPHEMERIS_TYPE":"0","SEMIMAJOR_AXIS":"6925.386","REV_AT_EPOCH":"8347","MEAN_ELEMENT_THEORY":"SGP4","PERIAPSIS":"546.728","ELEMENT_SET_NO":"999","ECCENTRICITY":"0.00007550","MEAN_ANOMALY":"265.2932"},{"REF_FRAME":"TEME","TLE_LINE2":"2 45369  53.0549 301.3283 0000827  95.9003 264.2080 15.06388611 83471","SITE":"AFETR","CENTER_NAME":"EARTH","GP_ID":"184910421","ARG_OF_PERICENTER":"95.9003","EPOCH":"2021-09-17T19:47:42.969696","OBJECT_NAME":"STARLINK-1277","RA_OF_ASC_NODE":"301.3283","TIME_SYSTEM":"UTC","EPHEMERIS_TYPE":"0","MEAN_MOTION_DDOT":"0.0000000000000","SEMIMAJOR_AXIS":"6925.383","REV_AT_EPOCH":"8347","PERIAPSIS":"546.676","MEAN_ELEMENT_THEORY":"SGP4","ELEMENT_SET_NO":"999","MEAN_ANOMALY":"264.2080","ECCENTRICITY":"0.00008270","MEAN_MOTION_DOT":"0.00000924","BSTAR":"0.00008094300000","FILE":"3118116","OBJECT_ID":"2020-019K","LAUNCH_DATE":"2020-03-18","APOAPSIS":"547.821","RCS_SIZE":"LARGE","PERIOD":"95.593","INCLINATION":"53.0549","NORAD_CAT_ID":"45369","DECAY_DATE":null,"OBJECT_TYPE":"PAYLOAD","TLE_LINE1":"1 45369U 20019K   21260.82480289  .00000924  00000-0  80943-4 0  9994","CLASSIFICATION_TYPE":"U","MEAN_MOTION":"15.06388611","COUNTRY_CODE":"US"}];
